UNKNOWN                 
1 87211U          26017.79663776  .00003164  00000+0  87263-3 0  9998
2 87211  99.0861  25.1951 0053796  52.6542 123.8613 14.46753804712984
UNKNOWN                 
1 87214U          26018.25513049  .00000378  00000+0  37899-3 0  9994
2 87214 100.3310  25.5081 0071693 160.7408 199.6478 13.84135792605294
UNKNOWN                 
1 87237U          26017.64333964  .00000258  00000+0  22813-3 0  9994
2 87237  99.2517  78.0438 0103713 186.8403 326.0054 13.91790030616755
UNKNOWN                 
1 87239U          26017.50082335  .00009493  00000+0  23080-2 0  9990
2 87239  82.8722  52.4794 0017136 285.5951  74.3356 14.52654568633066
UNKNOWN                 
1 87245U          26018.53713405  .00003645  00000+0  77014-3 0  9990
2 87245  65.6417 309.3764 0427885 102.7476  65.5559 14.16099149619410
UNKNOWN                 
1 87271U          26018.33925746  .00004060  00000+0  75864-3 0  9993
2 87271  65.7549 137.8854 0419476  54.1312 309.7971 14.22100845617575
UNKNOWN                 
1 87280U          26018.60573973  .00000367  00000+0  68761-3 0  9998
2 87280  64.6151 144.1934 0128865 253.5170 105.1677 13.48587384538823
UNKNOWN                 
1 87293U          26018.47793667  .00008692  00000+0  16870-2 0  9993
2 87293  65.8966  47.5725 0428666 339.7069  18.7412 14.18434348619201
UNKNOWN                 
1 87300U          26013.67849296  .00001504  00000+0  10635-2 0  9997
2 87300 100.0900   4.3447 0026149 206.9129 153.0677 13.99567399617580
UNKNOWN                 
1 87304U          26016.90178115  .00001259  00000+0  18912-3 0  9999
2 87304  74.0185 252.1117 0018391 215.2360 144.7600 14.75586245651662
UNKNOWN                 
1 87320U          26018.67222375  .00002311  00000+0  14600-2 0  9990
2 87320  66.5949 356.1766 0417379  30.8129 331.6731 13.70176957598809
UNKNOWN                 
1 87334U          26018.67207410  .00018480  00000+0  10648-1 0  9999
2 87334  89.9971 271.6875 0054442 117.7791 242.8928 14.08266315391844
