CCSDS_OMM_VERS = 2.0
CREATION_DATE  = 
ORIGINATOR     = 

OBJECT_NAME    = UNKNOWN
OBJECT_ID      = 
CENTER_NAME    = EARTH
REF_FRAME      = TEME
TIME_SYSTEM    = UTC
MEAN_ELEMENT_THEORY = SGP/SGP4

EPOCH          = 2026-01-17T19:07:09.502464
MEAN_MOTION    = 14.46753804
ECCENTRICITY   = .0053796
INCLINATION    = 99.0861
RA_OF_ASC_NODE = 25.1951
ARG_OF_PERICENTER = 52.6542
MEAN_ANOMALY   = 123.8613

EPHEMERIS_TYPE = 0
CLASSIFICATION_TYPE = U
NORAD_CAT_ID   = 87211
ELEMENT_SET_NO = 999
REV_AT_EPOCH   = 71298
BSTAR          = .87263E-3
MEAN_MOTION_DOT = .3164E-4
MEAN_MOTION_DDOT = 0

CCSDS_OMM_VERS = 2.0
CREATION_DATE  = 
ORIGINATOR     = 

OBJECT_NAME    = UNKNOWN
OBJECT_ID      = 
CENTER_NAME    = EARTH
REF_FRAME      = TEME
TIME_SYSTEM    = UTC
MEAN_ELEMENT_THEORY = SGP/SGP4

EPOCH          = 2026-01-18T06:07:23.274336
MEAN_MOTION    = 13.84135792
ECCENTRICITY   = .0071693
INCLINATION    = 100.3310
RA_OF_ASC_NODE = 25.5081
ARG_OF_PERICENTER = 160.7408
MEAN_ANOMALY   = 199.6478

EPHEMERIS_TYPE = 0
CLASSIFICATION_TYPE = U
NORAD_CAT_ID   = 87214
ELEMENT_SET_NO = 999
REV_AT_EPOCH   = 60529
BSTAR          = .37899E-3
MEAN_MOTION_DOT = .378E-5
MEAN_MOTION_DDOT = 0

CCSDS_OMM_VERS = 2.0
CREATION_DATE  = 
ORIGINATOR     = 

OBJECT_NAME    = UNKNOWN
OBJECT_ID      = 
CENTER_NAME    = EARTH
REF_FRAME      = TEME
TIME_SYSTEM    = UTC
MEAN_ELEMENT_THEORY = SGP/SGP4

EPOCH          = 2026-01-17T15:26:24.544896
MEAN_MOTION    = 13.91790030
ECCENTRICITY   = .0103713
INCLINATION    = 99.2517
RA_OF_ASC_NODE = 78.0438
ARG_OF_PERICENTER = 186.8403
MEAN_ANOMALY   = 326.0054

EPHEMERIS_TYPE = 0
CLASSIFICATION_TYPE = U
NORAD_CAT_ID   = 87237
ELEMENT_SET_NO = 999
REV_AT_EPOCH   = 61675
BSTAR          = .22813E-3
MEAN_MOTION_DOT = .258E-5
MEAN_MOTION_DDOT = 0

CCSDS_OMM_VERS = 2.0
CREATION_DATE  = 
ORIGINATOR     = 

OBJECT_NAME    = UNKNOWN
OBJECT_ID      = 
CENTER_NAME    = EARTH
REF_FRAME      = TEME
TIME_SYSTEM    = UTC
MEAN_ELEMENT_THEORY = SGP/SGP4

EPOCH          = 2026-01-17T12:01:11.137440
MEAN_MOTION    = 14.52654568
ECCENTRICITY   = .0017136
INCLINATION    = 82.8722
RA_OF_ASC_NODE = 52.4794
ARG_OF_PERICENTER = 285.5951
MEAN_ANOMALY   = 74.3356

EPHEMERIS_TYPE = 0
CLASSIFICATION_TYPE = U
NORAD_CAT_ID   = 87239
ELEMENT_SET_NO = 999
REV_AT_EPOCH   = 63306
BSTAR          = .2308E-2
MEAN_MOTION_DOT = .9493E-4
MEAN_MOTION_DDOT = 0

CCSDS_OMM_VERS = 2.0
CREATION_DATE  = 
ORIGINATOR     = 

OBJECT_NAME    = UNKNOWN
OBJECT_ID      = 
CENTER_NAME    = EARTH
REF_FRAME      = TEME
TIME_SYSTEM    = UTC
MEAN_ELEMENT_THEORY = SGP/SGP4

EPOCH          = 2026-01-18T12:53:28.381920
MEAN_MOTION    = 14.16099149
ECCENTRICITY   = .0427885
INCLINATION    = 65.6417
RA_OF_ASC_NODE = 309.3764
ARG_OF_PERICENTER = 102.7476
MEAN_ANOMALY   = 65.5559

EPHEMERIS_TYPE = 0
CLASSIFICATION_TYPE = U
NORAD_CAT_ID   = 87245
ELEMENT_SET_NO = 999
REV_AT_EPOCH   = 61941
BSTAR          = .77014E-3
MEAN_MOTION_DOT = .3645E-4
MEAN_MOTION_DDOT = 0

CCSDS_OMM_VERS = 2.0
CREATION_DATE  = 
ORIGINATOR     = 

OBJECT_NAME    = UNKNOWN
OBJECT_ID      = 
CENTER_NAME    = EARTH
REF_FRAME      = TEME
TIME_SYSTEM    = UTC
MEAN_ELEMENT_THEORY = SGP/SGP4

EPOCH          = 2026-01-18T08:08:31.844544
MEAN_MOTION    = 14.22100845
ECCENTRICITY   = .0419476
INCLINATION    = 65.7549
RA_OF_ASC_NODE = 137.8854
ARG_OF_PERICENTER = 54.1312
MEAN_ANOMALY   = 309.7971

EPHEMERIS_TYPE = 0
CLASSIFICATION_TYPE = U
NORAD_CAT_ID   = 87271
ELEMENT_SET_NO = 999
REV_AT_EPOCH   = 61757
BSTAR          = .75864E-3
MEAN_MOTION_DOT = .406E-4
MEAN_MOTION_DDOT = 0

CCSDS_OMM_VERS = 2.0
CREATION_DATE  = 
ORIGINATOR     = 

OBJECT_NAME    = UNKNOWN
OBJECT_ID      = 
CENTER_NAME    = EARTH
REF_FRAME      = TEME
TIME_SYSTEM    = UTC
MEAN_ELEMENT_THEORY = SGP/SGP4

EPOCH          = 2026-01-18T14:32:15.912672
MEAN_MOTION    = 13.48587384
ECCENTRICITY   = .0128865
INCLINATION    = 64.6151
RA_OF_ASC_NODE = 144.1934
ARG_OF_PERICENTER = 253.5170
MEAN_ANOMALY   = 105.1677

EPHEMERIS_TYPE = 0
CLASSIFICATION_TYPE = U
NORAD_CAT_ID   = 87280
ELEMENT_SET_NO = 999
REV_AT_EPOCH   = 53882
BSTAR          = .68761E-3
MEAN_MOTION_DOT = .367E-5
MEAN_MOTION_DDOT = 0

CCSDS_OMM_VERS = 2.0
CREATION_DATE  = 
ORIGINATOR     = 

OBJECT_NAME    = UNKNOWN
OBJECT_ID      = 
CENTER_NAME    = EARTH
REF_FRAME      = TEME
TIME_SYSTEM    = UTC
MEAN_ELEMENT_THEORY = SGP/SGP4

EPOCH          = 2026-01-18T11:28:13.728288
MEAN_MOTION    = 14.18434348
ECCENTRICITY   = .0428666
INCLINATION    = 65.8966
RA_OF_ASC_NODE = 47.5725
ARG_OF_PERICENTER = 339.7069
MEAN_ANOMALY   = 18.7412

EPHEMERIS_TYPE = 0
CLASSIFICATION_TYPE = U
NORAD_CAT_ID   = 87293
ELEMENT_SET_NO = 999
REV_AT_EPOCH   = 61920
BSTAR          = .1687E-2
MEAN_MOTION_DOT = .8692E-4
MEAN_MOTION_DDOT = 0

CCSDS_OMM_VERS = 2.0
CREATION_DATE  = 
ORIGINATOR     = 

OBJECT_NAME    = UNKNOWN
OBJECT_ID      = 
CENTER_NAME    = EARTH
REF_FRAME      = TEME
TIME_SYSTEM    = UTC
MEAN_ELEMENT_THEORY = SGP/SGP4

EPOCH          = 2026-01-13T16:17:01.791744
MEAN_MOTION    = 13.99567399
ECCENTRICITY   = .0026149
INCLINATION    = 100.0900
RA_OF_ASC_NODE = 4.3447
ARG_OF_PERICENTER = 206.9129
MEAN_ANOMALY   = 153.0677

EPHEMERIS_TYPE = 0
CLASSIFICATION_TYPE = U
NORAD_CAT_ID   = 87300
ELEMENT_SET_NO = 999
REV_AT_EPOCH   = 61758
BSTAR          = .10635E-2
MEAN_MOTION_DOT = .1504E-4
MEAN_MOTION_DDOT = 0

CCSDS_OMM_VERS = 2.0
CREATION_DATE  = 
ORIGINATOR     = 

OBJECT_NAME    = UNKNOWN
OBJECT_ID      = 
CENTER_NAME    = EARTH
REF_FRAME      = TEME
TIME_SYSTEM    = UTC
MEAN_ELEMENT_THEORY = SGP/SGP4

EPOCH          = 2026-01-16T21:38:33.891360
MEAN_MOTION    = 14.75586245
ECCENTRICITY   = .0018391
INCLINATION    = 74.0185
RA_OF_ASC_NODE = 252.1117
ARG_OF_PERICENTER = 215.2360
MEAN_ANOMALY   = 144.7600

EPHEMERIS_TYPE = 0
CLASSIFICATION_TYPE = U
NORAD_CAT_ID   = 87304
ELEMENT_SET_NO = 999
REV_AT_EPOCH   = 65166
BSTAR          = .18912E-3
MEAN_MOTION_DOT = .1259E-4
MEAN_MOTION_DDOT = 0

CCSDS_OMM_VERS = 2.0
CREATION_DATE  = 
ORIGINATOR     = 

OBJECT_NAME    = UNKNOWN
OBJECT_ID      = 
CENTER_NAME    = EARTH
REF_FRAME      = TEME
TIME_SYSTEM    = UTC
MEAN_ELEMENT_THEORY = SGP/SGP4

EPOCH          = 2026-01-18T16:08:00.132000
MEAN_MOTION    = 13.70176957
ECCENTRICITY   = .0417379
INCLINATION    = 66.5949
RA_OF_ASC_NODE = 356.1766
ARG_OF_PERICENTER = 30.8129
MEAN_ANOMALY   = 331.6731

EPHEMERIS_TYPE = 0
CLASSIFICATION_TYPE = U
NORAD_CAT_ID   = 87320
ELEMENT_SET_NO = 999
REV_AT_EPOCH   = 59880
BSTAR          = .146E-2
MEAN_MOTION_DOT = .2311E-4
MEAN_MOTION_DDOT = 0

CCSDS_OMM_VERS = 2.0
CREATION_DATE  = 
ORIGINATOR     = 

OBJECT_NAME    = UNKNOWN
OBJECT_ID      = 
CENTER_NAME    = EARTH
REF_FRAME      = TEME
TIME_SYSTEM    = UTC
MEAN_ELEMENT_THEORY = SGP/SGP4

EPOCH          = 2026-01-18T16:07:47.202240
MEAN_MOTION    = 14.08266315
ECCENTRICITY   = .0054442
INCLINATION    = 89.9971
RA_OF_ASC_NODE = 271.6875
ARG_OF_PERICENTER = 117.7791
MEAN_ANOMALY   = 242.8928

EPHEMERIS_TYPE = 0
CLASSIFICATION_TYPE = U
NORAD_CAT_ID   = 87334
ELEMENT_SET_NO = 999
REV_AT_EPOCH   = 39184
BSTAR          = .10648E-1
MEAN_MOTION_DOT = .1848E-3
MEAN_MOTION_DDOT = 0

